CCSDS_OMM_VERS = 2.0
CREATION_DATE  = 
ORIGINATOR     = 

OBJECT_NAME    = SL-3 R/B
OBJECT_ID      = 1982-079B
CENTER_NAME    = EARTH
REF_FRAME      = TEME
TIME_SYSTEM    = UTC
MEAN_ELEMENT_THEORY = SGP/SGP4

EPOCH          = 2026-03-16T19:40:06.896928
MEAN_MOTION    = 15.24909152
ECCENTRICITY   = .0025281
INCLINATION    = 81.1489
RA_OF_ASC_NODE = 184.6595
ARG_OF_PERICENTER = 141.1517
MEAN_ANOMALY   = 219.1540

EPHEMERIS_TYPE = 0
CLASSIFICATION_TYPE = U
NORAD_CAT_ID   = 13403
ELEMENT_SET_NO = 999
REV_AT_EPOCH   = 37878
BSTAR          = .21055E-3
MEAN_MOTION_DOT = .5313E-4
MEAN_MOTION_DDOT = 0

CCSDS_OMM_VERS = 2.0
CREATION_DATE  = 
ORIGINATOR     = 

OBJECT_NAME    = SL-14 R/B
OBJECT_ID      = 1982-092B
CENTER_NAME    = EARTH
REF_FRAME      = TEME
TIME_SYSTEM    = UTC
MEAN_ELEMENT_THEORY = SGP/SGP4

EPOCH          = 2026-03-16T14:17:51.300960
MEAN_MOTION    = 14.86672985
ECCENTRICITY   = .0018776
INCLINATION    = 82.5682
RA_OF_ASC_NODE = 134.9401
ARG_OF_PERICENTER = 278.9297
MEAN_ANOMALY   = 247.3834

EPHEMERIS_TYPE = 0
CLASSIFICATION_TYPE = U
NORAD_CAT_ID   = 13553
ELEMENT_SET_NO = 999
REV_AT_EPOCH   = 32995
BSTAR          = .44654E-4
MEAN_MOTION_DOT = .422E-5
MEAN_MOTION_DDOT = 0

CCSDS_OMM_VERS = 2.0
CREATION_DATE  = 
ORIGINATOR     = 

OBJECT_NAME    = SL-3 R/B
OBJECT_ID      = 1983-010B
CENTER_NAME    = EARTH
REF_FRAME      = TEME
TIME_SYSTEM    = UTC
MEAN_ELEMENT_THEORY = SGP/SGP4

EPOCH          = 2026-03-16T17:58:24.311136
MEAN_MOTION    = 15.46618063
ECCENTRICITY   = .0017313
INCLINATION    = 81.1066
RA_OF_ASC_NODE = 353.5920
ARG_OF_PERICENTER = 28.0226
MEAN_ANOMALY   = 332.1947

EPHEMERIS_TYPE = 0
CLASSIFICATION_TYPE = U
NORAD_CAT_ID   = 13819
ELEMENT_SET_NO = 999
REV_AT_EPOCH   = 35903
BSTAR          = .27036E-3
MEAN_MOTION_DOT = .13583E-3
MEAN_MOTION_DDOT = 0

CCSDS_OMM_VERS = 2.0
CREATION_DATE  = 
ORIGINATOR     = 

OBJECT_NAME    = SL-3 R/B
OBJECT_ID      = 1983-075B
CENTER_NAME    = EARTH
REF_FRAME      = TEME
TIME_SYSTEM    = UTC
MEAN_ELEMENT_THEORY = SGP/SGP4

EPOCH          = 2026-03-16T20:11:46.400928
MEAN_MOTION    = 15.38595284
ECCENTRICITY   = .0020843
INCLINATION    = 97.6136
RA_OF_ASC_NODE = 80.6902
ARG_OF_PERICENTER = 198.9821
MEAN_ANOMALY   = 161.0649

EPHEMERIS_TYPE = 0
CLASSIFICATION_TYPE = U
NORAD_CAT_ID   = 14208
ELEMENT_SET_NO = 999
REV_AT_EPOCH   = 33125
BSTAR          = .24959E-3
MEAN_MOTION_DOT = .9494E-4
MEAN_MOTION_DDOT = 0

CCSDS_OMM_VERS = 2.0
CREATION_DATE  = 
ORIGINATOR     = 

OBJECT_NAME    = COSMOS 1536
OBJECT_ID      = 1984-013A
CENTER_NAME    = EARTH
REF_FRAME      = TEME
TIME_SYSTEM    = UTC
MEAN_ELEMENT_THEORY = SGP/SGP4

EPOCH          = 2026-03-16T03:43:14.241216
MEAN_MOTION    = 15.23916586
ECCENTRICITY   = .00124402
INCLINATION    = 82.5418
RA_OF_ASC_NODE = 101.4219
ARG_OF_PERICENTER = 257.4745
MEAN_ANOMALY   = 102.5101

EPHEMERIS_TYPE = 0
CLASSIFICATION_TYPE = U
NORAD_CAT_ID   = 14699
ELEMENT_SET_NO = 999
REV_AT_EPOCH   = 27360
BSTAR          = .27329804E-3
MEAN_MOTION_DOT = .6647E-4
MEAN_MOTION_DDOT = 0

CCSDS_OMM_VERS = 2.0
CREATION_DATE  = 
ORIGINATOR     = 

OBJECT_NAME    = SL-14 R/B
OBJECT_ID      = 1984-027B
CENTER_NAME    = EARTH
REF_FRAME      = TEME
TIME_SYSTEM    = UTC
MEAN_ELEMENT_THEORY = SGP/SGP4

EPOCH          = 2026-03-16T19:56:28.774176
MEAN_MOTION    = 14.85984161
ECCENTRICITY   = .0016841
INCLINATION    = 82.5396
RA_OF_ASC_NODE = 238.3137
ARG_OF_PERICENTER = 313.1227
MEAN_ANOMALY   = 46.8580

EPHEMERIS_TYPE = 0
CLASSIFICATION_TYPE = U
NORAD_CAT_ID   = 14820
ELEMENT_SET_NO = 999
REV_AT_EPOCH   = 24869
BSTAR          = .51325E-4
MEAN_MOTION_DOT = .473E-5
MEAN_MOTION_DDOT = 0

CCSDS_OMM_VERS = 2.0
CREATION_DATE  = 
ORIGINATOR     = 

OBJECT_NAME    = SL-8 R/B
OBJECT_ID      = 1985-006B
CENTER_NAME    = EARTH
REF_FRAME      = TEME
TIME_SYSTEM    = UTC
MEAN_ELEMENT_THEORY = SGP/SGP4

EPOCH          = 2026-03-16T17:53:19.022784
MEAN_MOTION    = 14.37788477
ECCENTRICITY   = .0018149
INCLINATION    = 74.0434
RA_OF_ASC_NODE = 248.1637
ARG_OF_PERICENTER = 164.0958
MEAN_ANOMALY   = 206.7865

EPHEMERIS_TYPE = 0
CLASSIFICATION_TYPE = U
NORAD_CAT_ID   = 15483
ELEMENT_SET_NO = 999
REV_AT_EPOCH   = 15504
BSTAR          = .11359E-3
MEAN_MOTION_DOT = .316E-5
MEAN_MOTION_DDOT = 0

CCSDS_OMM_VERS = 2.0
CREATION_DATE  = 
ORIGINATOR     = 

OBJECT_NAME    = SL-12 R/B(2)
OBJECT_ID      = 1985-042D
CENTER_NAME    = EARTH
REF_FRAME      = TEME
TIME_SYSTEM    = UTC
MEAN_ELEMENT_THEORY = SGP/SGP4

EPOCH          = 2026-03-16T18:00:35.519040
MEAN_MOTION    = 14.21984486
ECCENTRICITY   = .0033011
INCLINATION    = 71.1065
RA_OF_ASC_NODE = 72.8099
ARG_OF_PERICENTER = 116.4851
MEAN_ANOMALY   = 55.5136

EPHEMERIS_TYPE = 0
CLASSIFICATION_TYPE = U
NORAD_CAT_ID   = 15772
ELEMENT_SET_NO = 999
REV_AT_EPOCH   = 11539
BSTAR          = .50882E-4
MEAN_MOTION_DOT = .66E-6
MEAN_MOTION_DDOT = 0

CCSDS_OMM_VERS = 2.0
CREATION_DATE  = 
ORIGINATOR     = 

OBJECT_NAME    = SL-14 R/B
OBJECT_ID      = 1985-069B
CENTER_NAME    = EARTH
REF_FRAME      = TEME
TIME_SYSTEM    = UTC
MEAN_ELEMENT_THEORY = SGP/SGP4

EPOCH          = 2026-03-16T21:08:23.033760
MEAN_MOTION    = 14.86441533
ECCENTRICITY   = .0019133
INCLINATION    = 82.5296
RA_OF_ASC_NODE = 18.1723
ARG_OF_PERICENTER = 163.8780
MEAN_ANOMALY   = 196.3050

EPHEMERIS_TYPE = 0
CLASSIFICATION_TYPE = U
NORAD_CAT_ID   = 15945
ELEMENT_SET_NO = 999
REV_AT_EPOCH   = 17390
BSTAR          = .50821E-4
MEAN_MOTION_DOT = .475E-5
MEAN_MOTION_DDOT = 0

CCSDS_OMM_VERS = 2.0
CREATION_DATE  = 
ORIGINATOR     = 

OBJECT_NAME    = SL-16 R/B
OBJECT_ID      = 1985-097B
CENTER_NAME    = EARTH
REF_FRAME      = TEME
TIME_SYSTEM    = UTC
MEAN_ELEMENT_THEORY = SGP/SGP4

EPOCH          = 2026-03-16T20:35:55.457664
MEAN_MOTION    = 14.16598709
ECCENTRICITY   = .0009714
INCLINATION    = 71.0016
RA_OF_ASC_NODE = 125.4628
ARG_OF_PERICENTER = 250.9688
MEAN_ANOMALY   = 283.5089

EPHEMERIS_TYPE = 0
CLASSIFICATION_TYPE = U
NORAD_CAT_ID   = 16182
ELEMENT_SET_NO = 999
REV_AT_EPOCH   = 8824
BSTAR          = .10301E-3
MEAN_MOTION_DOT = .158E-5
MEAN_MOTION_DDOT = 0

CCSDS_OMM_VERS = 2.0
CREATION_DATE  = 
ORIGINATOR     = 

OBJECT_NAME    = SL-14 R/B
OBJECT_ID      = 1986-006B
CENTER_NAME    = EARTH
REF_FRAME      = TEME
TIME_SYSTEM    = UTC
MEAN_ELEMENT_THEORY = SGP/SGP4

EPOCH          = 2026-03-16T20:32:40.870176
MEAN_MOTION    = 14.86825560
ECCENTRICITY   = .0075154
INCLINATION    = 82.5237
RA_OF_ASC_NODE = 252.9903
ARG_OF_PERICENTER = 248.5821
MEAN_ANOMALY   = 110.7368

EPHEMERIS_TYPE = 0
CLASSIFICATION_TYPE = U
NORAD_CAT_ID   = 16496
ELEMENT_SET_NO = 999
REV_AT_EPOCH   = 15027
BSTAR          = .70471E-4
MEAN_MOTION_DOT = .687E-5
MEAN_MOTION_DDOT = 0

CCSDS_OMM_VERS = 2.0
CREATION_DATE  = 
ORIGINATOR     = 

OBJECT_NAME    = COSMOS 1743
OBJECT_ID      = 1986-034A
CENTER_NAME    = EARTH
REF_FRAME      = TEME
TIME_SYSTEM    = UTC
MEAN_ELEMENT_THEORY = SGP/SGP4

EPOCH          = 2026-03-16T06:05:49.132896
MEAN_MOTION    = 15.59071129
ECCENTRICITY   = .00018276
INCLINATION    = 82.5285
RA_OF_ASC_NODE = 66.9375
ARG_OF_PERICENTER = 230.6390
MEAN_ANOMALY   = 129.4704

EPHEMERIS_TYPE = 0
CLASSIFICATION_TYPE = U
NORAD_CAT_ID   = 16719
ELEMENT_SET_NO = 999
REV_AT_EPOCH   = 18127
BSTAR          = .48277975E-3
MEAN_MOTION_DOT = .37781E-3
MEAN_MOTION_DDOT = 0

